NORAD_CAT_ID,OBJECT_NAME,OBJECT_TYPE,EPOCH,MEAN_MOTION,ECCENTRICITY,INCLINATION,RA_OF_ASC_NODE,ARG_OF_PERICENTER,MEAN_ANOMALY,BSTAR,MEAN_MOTION_DOT,MEAN_MOTION_DDOT,TLE_LINE0,TLE_LINE1,TLE_LINE2,SEMIMAJOR_AXIS,PERIOD,APOGEE,PERIGEE,DECAYED
55914.0,STARLINK-5856,PAYLOAD,2024-03-15 22:42:39,14.98321126,0.0002932,69.9995,329.4245,268.2888,91.7935,-0.00018248,-2.269e-05,0.0,0 STARLINK-5856,1 55914U 23037A   24075.94629348 -.00002269  00000-0 -18248-3 0  9999,2 55914  69.9995 329.4245 0002932 268.2888  91.7935 14.98321126 55764,6950.22,96.108,574.123,570.048,0.0
55914.0,STARLINK-5856,PAYLOAD,2024-03-16 03:31:03,14.98328199,0.000278,69.9998,328.9195,271.9367,88.1474,-0.00018004,-2.24e-05,0.0,0 STARLINK-5856,1 55914U 23037A   24076.14657002 -.00002240  00000-0 -18004-3 0  9999,2 55914  69.9998 328.9195 0002780 271.9367  88.1474 14.98328199 55449,6950.198,96.107,573.996,570.131,0.0
55914.0,STARLINK-5856,PAYLOAD,2024-03-16 21:08:31,14.9837957,0.0002978,70.0004,327.0692,245.7747,114.3101,-0.0012698,-0.00015231,0.0,0 STARLINK-5856,1 55914U 23037A   24076.88092416 -.00015231  00000-0 -12698-2 0  9998,2 55914  70.0004 327.0692 0002978 245.7747 114.3101 14.98379570 55552,6950.04,96.104,573.974,569.835,0.0
55914.0,STARLINK-5856,PAYLOAD,2024-03-16 22:44:39,14.98372319,0.0002945,70.0004,326.901,246.4804,113.6046,-0.0011685,-0.00014023,0.0,0 STARLINK-5856,1 55914U 23037A   24076.94768466 -.00014023  00000-0 -11685-2 0  9993,2 55914  70.0004 326.9010 0002945 246.4804 113.6046 14.98372319 55914,6950.062,96.104,573.974,569.88,0.0
55914.0,STARLINK-5856,PAYLOAD,2024-03-17 01:56:55,14.98373151,0.0003005,70.0003,326.5646,250.1731,109.9105,-0.0012497,-0.00014989,0.0,0 STARLINK-5856,1 55914U 23037A   24077.08120360 -.00014989  00000-0 -12497-2 0  9997,2 55914  70.0003 326.5646 0003005 250.1731 109.9105 14.98373151 55934,6950.059,96.104,574.013,569.836,0.0
55914.0,STARLINK-5856,PAYLOAD,2024-03-17 21:10:34,14.98314451,0.0002712,69.9997,324.5437,260.6624,99.4229,6.7227e-05,7.09e-06,0.0,0 STARLINK-5856,1 55914U 23037A   24077.88233995  .00000709  00000-0  67227-4 0  9990,2 55914  69.9997 324.5437 0002712 260.6624  99.4229 14.98314451 55703,6950.241,96.108,573.991,570.221,0.0
55914.0,STARLINK-5856,PAYLOAD,2024-03-18 01:58:58,14.98315932,0.0002674,69.9999,324.0393,259.757,100.3288,8.45e-05,9.15e-06,0.0,0 STARLINK-5856,1 55914U 23037A   24078.08262066  .00000915  00000-0  84500-4 0  9996,2 55914  69.9999 324.0393 0002674 259.7570 100.3288 14.98315932 56081,6950.236,96.108,573.96,570.243,0.0
55914.0,STARLINK-5856,PAYLOAD,2024-03-18 21:12:35,14.98322189,0.0002975,69.9992,322.0192,269.362,90.7198,0.00017491,1.994e-05,0.0,0 STARLINK-5856,1 55914U 23037A   24078.88374039  .00001994  00000-0  17491-3 0  9990,2 55914  69.9992 322.0192 0002975 269.3620  90.7198 14.98322189 55854,6950.217,96.108,574.15,570.014,0.0
55914.0,STARLINK-5856,PAYLOAD,2024-03-19 02:00:58,14.98329506,0.0002918,69.9992,321.514,266.6253,93.4572,0.00024011,2.773e-05,0.0,0 STARLINK-5856,1 55914U 23037A   24079.08401338  .00002773  00000-0  24011-3 0  9998,2 55914  69.9992 321.5140 0002918 266.6253  93.4572 14.98329506 55889,6950.194,96.107,574.087,570.031,0.0
55914.0,STARLINK-5856,PAYLOAD,2024-03-20 02:02:59,14.98337895,0.0002677,69.9996,318.9887,259.7773,100.3084,0.0001509,1.708e-05,0.0,0 STARLINK-5856,1 55914U 23037A   24080.08540934  .00001708  00000-0  15090-3 0  9990,2 55914  69.9996 318.9887 0002677 259.7773 100.3084 14.98337895 56037,6950.168,96.106,573.894,570.173,0.0
55914.0,STARLINK-5856,PAYLOAD,2024-03-20 21:16:36,14.98331732,0.0003395,70.0008,316.9746,218.7269,141.3648,-0.00013258,-1.675e-05,0.0,0 STARLINK-5856,1 55914U 23037A   24080.88653906 -.00001675  00000-0 -13258-3 0  9991,2 55914  70.0008 316.9746 0003395 218.7269 141.3648 14.98331732 56157,6950.188,96.107,574.412,569.693,0.0
55914.0,STARLINK-5856,PAYLOAD,2024-03-20 22:52:45,14.98325522,0.0003158,69.9996,316.8036,238.6824,121.4026,-0.00011859,-1.508e-05,0.0,0 STARLINK-5856,1 55914U 23037A   24080.95330173 -.00001508  00000-0 -11859-3 0  9997,2 55914  69.9996 316.8036 0003158 238.6824 121.4026 14.98325522 56515,6950.207,96.107,574.267,569.877,0.0
55914.0,STARLINK-5856,PAYLOAD,2024-03-21 02:05:01,14.98325527,0.0002919,69.9991,316.4632,262.77,97.3127,-0.00013529,-1.707e-05,0.0,0 STARLINK-5856,1 55914U 23037A   24081.08682449 -.00001707  00000-0 -13529-3 0  9995,2 55914  69.9991 316.4632 0002919 262.7700  97.3127 14.98325527 56184,6950.207,96.107,574.1,570.043,0.0
55914.0,STARLINK-5856,PAYLOAD,2024-03-21 08:29:33,14.98332331,0.0003165,69.9987,315.7911,254.8526,105.2283,-0.00012746,-1.614e-05,0.0,0 STARLINK-5856,1 55914U 23037A   24081.35385938 -.00001614  00000-0 -12746-3 0  9995,2 55914  69.9987 315.7911 0003165 254.8526 105.2283 14.98332331 56221,6950.186,96.107,574.25,569.851,0.0
55914.0,STARLINK-5856,PAYLOAD,2024-03-21 21:18:37,14.98343369,0.0002656,69.9984,314.4416,261.7777,98.3081,-0.00018665,-2.32e-05,0.0,0 STARLINK-5856,1 55914U 23037A   24081.88793409 -.00002320  00000-0 -18665-3 0  9990,2 55914  69.9984 314.4416 0002656 261.7777  98.3081 14.98343369 56303,6950.152,96.106,573.863,570.171,0.0
55914.0,STARLINK-5856,PAYLOAD,2024-03-22 14:56:05,14.98325602,0.0002543,70.0002,312.593,248.3546,111.7342,0.00023196,2.675e-05,0.0,0 STARLINK-5856,1 55914U 23037A   24082.62229064  .00002675  00000-0  23196-3 0  9990,2 55914  70.0002 312.5930 0002543 248.3546 111.7342 14.98325602 56767,6950.206,96.107,573.839,570.304,0.0
55914.0,STARLINK-5856,PAYLOAD,2024-03-22 21:20:38,14.98322283,0.0003018,69.9996,311.9182,259.4093,100.6726,0.00018755,2.145e-05,0.0,0 STARLINK-5856,1 55914U 23037A   24082.88933448  .00002145  00000-0  18755-3 0  9993,2 55914  69.9996 311.9182 0003018 259.4093 100.6726 14.98322283 56457,6950.217,96.107,574.179,569.984,0.0
55914.0,STARLINK-5856,PAYLOAD,2024-03-23 21:22:39,14.98331232,0.0002816,69.999,309.3942,263.2679,96.8159,-5.9033e-05,-7.97e-06,0.0,0 STARLINK-5856,1 55914U 23037A   24083.89073742 -.00000797  00000-0 -59033-4 0  9995,2 55914  69.9990 309.3942 0002816 263.2679  96.8159 14.98331232 56601,6950.189,96.107,574.011,570.097,0.0
55914.0,STARLINK-5856,PAYLOAD,2024-03-24 08:35:34,14.9834795,0.0002705,69.9982,308.2129,263.7691,96.3159,1.9116e-05,1.35e-06,0.0,0 STARLINK-5856,1 55914U 23037A   24084.35804203  .00000135  00000-0  19116-4 0  9993,2 55914  69.9982 308.2129 0002705 263.7691  96.3159 14.98347950 56679,6950.137,96.106,573.882,570.122,0.0
55914.0,STARLINK-5856,PAYLOAD,2024-03-24 15:00:06,14.98345221,0.0003296,69.9976,307.5411,265.3366,94.7417,0.00016888,1.923e-05,0.0,0 STARLINK-5856,1 55914U 23037A   24084.62507736  .00001923  00000-0  16888-3 0  9992,2 55914  69.9976 307.5411 0003296 265.3366  94.7417 14.98345221 57063,6950.146,96.106,574.302,569.72,0.0
55914.0,STARLINK-5856,PAYLOAD,2024-03-24 21:24:38,14.98354917,0.0003222,69.9977,306.8678,264.8097,95.2695,0.00027505,3.192e-05,0.0,0 STARLINK-5856,1 55914U 23037A   24084.89210712  .00003192  00000-0  27505-3 0  9994,2 55914  69.9977 306.8678 0003222 264.8097  95.2695 14.98354917 56756,6950.116,96.105,574.22,569.742,0.0
55914.0,STARLINK-5856,PAYLOAD,2024-03-24 23:00:45,14.98357741,0.0003141,69.9978,306.6993,263.9247,96.1554,0.00027417,3.182e-05,0.0,0 STARLINK-5856,1 55914U 23037A   24084.95886407  .00003182  00000-0  27417-3 0  9992,2 55914  69.9978 306.6993 0003141 263.9247  96.1554 14.98357741 57115,6950.107,96.105,574.155,569.789,0.0
55914.0,STARLINK-5856,PAYLOAD,2024-03-25 08:37:35,14.98336647,0.0002838,69.9989,305.6886,270.3005,89.7829,7.6423e-05,8.19e-06,0.0,0 STARLINK-5856,1 55914U 23037A   24085.35943834  .00000819  00000-0  76423-4 0  9991,2 55914  69.9989 305.6886 0002838 270.3005  89.7829 14.98336647 56825,6950.172,96.107,574.01,570.065,0.0
55914.0,STARLINK-5856,PAYLOAD,2024-03-25 21:26:41,14.98313398,0.0002935,69.9985,304.3428,271.0316,89.0507,-0.00016123,-2.015e-05,0.0,0 STARLINK-5856,1 55914U 23037A   24085.89354143 -.00002015  00000-0 -16123-3 0  9991,2 55914  69.9985 304.3428 0002935 271.0316  89.0507 14.98313398 56903,6950.244,96.108,574.149,570.069,0.0
55914.0,STARLINK-5856,PAYLOAD,2024-03-26 15:04:09,14.98327009,0.0003814,69.9968,302.4885,265.7555,94.3168,-0.00016758,-2.092e-05,0.0,0 STARLINK-5856,1 55914U 23037A   24086.62789293 -.00002092  00000-0 -16758-3 0  9990,2 55914  69.9968 302.4885 0003814 265.7555  94.3168 14.98327009 57369,6950.202,96.107,574.718,569.416,0.0
55914.0,STARLINK-5856,PAYLOAD,2024-03-26 21:28:41,14.98335928,0.0002922,69.9976,301.8167,265.6823,94.4002,-0.00011891,-1.512e-05,0.0,0 STARLINK-5856,1 55914U 23037A   24086.89492711 -.00001512  00000-0 -11891-3 0  9994,2 55914  69.9976 301.8167 0002922 265.6823  94.4002 14.98335928 57053,6950.175,96.107,574.07,570.009,0.0
55914.0,STARLINK-5856,PAYLOAD,2024-03-26 23:04:49,14.98340425,0.0003188,69.9975,301.6488,271.9012,88.1782,-7.9801e-05,-1.045e-05,0.0,0 STARLINK-5856,1 55914U 23037A   24086.96168311 -.00001045  00000-0 -79801-4 0  9995,2 55914  69.9975 301.6488 0003188 271.9012  88.1782 14.98340425 57414,6950.161,96.106,574.241,569.81,0.0
55914.0,STARLINK-5856,PAYLOAD,2024-03-27 07:05:29,14.98362576,0.0002796,69.9986,300.806,274.4362,85.6478,-0.00060206,-7.275e-05,0.0,0 STARLINK-5856,1 55914U 23037A   24087.29547770 -.00007275  00000-0 -60206-3 0  9991,2 55914  69.9986 300.8060 0002796 274.4362  85.6478 14.98362576 57115,6950.092,96.105,573.9,570.014,0.0
55914.0,STARLINK-5856,PAYLOAD,2024-03-27 19:54:35,14.98318815,0.0002633,69.9987,299.4602,269.2831,90.8027,0.00010762,1.191e-05,0.0,0 STARLINK-5856,1 55914U 23037A   24087.82957407  .00001191  00000-0  10762-3 0  9993,2 55914  69.9987 299.4602 0002633 269.2831  90.8027 14.98318815 57197,6950.227,96.108,573.922,570.262,0.0
55914.0,STARLINK-5856,PAYLOAD,2024-03-27 21:30:43,14.98313326,0.0002948,69.9986,299.2922,270.4984,89.5837,0.00017632,2.011e-05,0.0,0 STARLINK-5856,1 55914U 23037A   24087.89633683  .00002011  00000-0  17632-3 0  9992,2 55914  69.9986 299.2922 0002948 270.4984  89.5837 14.98313326 57557,6950.244,96.108,574.158,570.061,0.0
